{
    "links": {
        "self": "http://www.neowsapp.com/rest/v1/neo/54017188?api_key=iIulBulltgU6a56xZRHN4H3l9WmuAYTsLGpBGhQ2"
    },
    "id": "54017188",
    "neo_reference_id": "54017188",
    "name": "(2020 KL3)",
    "designation": "2020 KL3",
    "nasa_jpl_url": "http://ssd.jpl.nasa.gov/sbdb.cgi?sstr=54017188",
    "absolute_magnitude_h": 24.43,
    "estimated_diameter": {
        "kilometers": {
            "estimated_diameter_min": 0.0345585074,
            "estimated_diameter_max": 0.0772751717
        },
        "meters": {
            "estimated_diameter_min": 34.5585073841,
            "estimated_diameter_max": 77.2751717118
        },
        "miles": {
            "estimated_diameter_min": 0.0214736543,
            "estimated_diameter_max": 0.0480165507
        },
        "feet": {
            "estimated_diameter_min": 113.3809333661,
            "estimated_diameter_max": 253.527474359
        }
    },
    "is_potentially_hazardous_asteroid": false,
    "close_approach_data": [
        {
            "close_approach_date": "2020-05-14",
            "close_approach_date_full": "2020-May-14 07:37",
            "epoch_date_close_approach": 1589441820000,
            "relative_velocity": {
                "kilometers_per_second": "15.946669239",
                "kilometers_per_hour": "57408.0092604929",
                "miles_per_hour": "35671.1044207768"
            },
            "miss_distance": {
                "astronomical": "0.0704067575",
                "lunar": "27.3882286675",
                "kilometers": "10532700.955606525",
                "miles": "6544716.891259045"
            },
            "orbiting_body": "Earth"
        }
    ],
    "orbital_data": {
        "orbit_id": "8",
        "orbit_determination_date": "2020-08-22 06:34:21",
        "first_observation_date": "2020-05-21",
        "last_observation_date": "2020-05-30",
        "data_arc_in_days": 9,
        "observations_used": 54,
        "orbit_uncertainty": "8",
        "minimum_orbit_intersection": ".0651518",
        "jupiter_tisserand_invariant": "4.102",
        "epoch_osculation": "2458993.5",
        "eccentricity": ".4036487574445038",
        "semi_major_axis": "1.632779735300768",
        "inclination": "26.78966436047906",
        "ascending_node_longitude": "237.9999751642709",
        "orbital_period": "762.0611632352825",
        "perihelion_distance": ".9737102239660472",
        "perihelion_argument": "309.9937671503171",
        "aphelion_distance": "2.291849246635489",
        "perihelion_time": "2458942.743732425087",
        "mean_anomaly": "23.97741442352864",
        "mean_motion": ".4724030266437443",
        "equinox": "J2000",
        "orbit_class": {
            "orbit_class_type": "APO",
            "orbit_class_description": "Near-Earth asteroid orbits which cross the Earth’s orbit similar to that of 1862 Apollo",
            "orbit_class_range": "a (semi-major axis) > 1.0 AU; q (perihelion) < 1.017 AU"
        }
    },
    "is_sentry_object": false
}